start=new Date('2023-01-06T00:00:00.000Z').valueOf();
sats=[{"TLE_LINE2":"2 53561  53.2174 227.2796 0002076  47.6951 312.4216 15.08856811 21337","INCLINATION":"53.2174","OBJECT_ID":"2022-101AL","REV_AT_EPOCH":"2133","FILE":"3732963","ARG_OF_PERICENTER":"47.6951","TIME_SYSTEM":"UTC","DECAY_DATE":null,"EPOCH":"2023-01-05T15:29:25.551168","MEAN_ELEMENT_THEORY":"SGP4","MEAN_ANOMALY":"312.4216","OBJECT_NAME":"STARLINK-4563","LAUNCH_DATE":"2022-08-19","SEMIMAJOR_AXIS":"6917.829","RA_OF_ASC_NODE":"227.2796","MEAN_MOTION_DOT":"0.00002204","NORAD_CAT_ID":"53561","MEAN_MOTION_DDOT":"0.0000000000000","TLE_LINE1":"1 53561U 22101AL  23005.64543462  .00002204  00000-0  15647-3 0  9994","SITE":"AFETR","EPHEMERIS_TYPE":"0","OBJECT_TYPE":"PAYLOAD","COUNTRY_CODE":"US","APOAPSIS":"541.130","MEAN_MOTION":"15.08856811","ECCENTRICITY":"0.00020760","PERIAPSIS":"538.258","PERIOD":"95.436","CLASSIFICATION_TYPE":"U","RCS_SIZE":"LARGE","REF_FRAME":"TEME","CENTER_NAME":"EARTH","BSTAR":"0.00015647000000","ELEMENT_SET_NO":"999","GP_ID":"222292399"},{"SITE":"AFETR","MEAN_MOTION_DDOT":"0.0000000000000","TLE_LINE1":"1 53562U 22101AM  23005.62157172  .00000996  00000-0  80634-4 0  9997","NORAD_CAT_ID":"53562","MEAN_MOTION_DOT":"0.00000996","OBJECT_NAME":"STARLINK-4565","SEMIMAJOR_AXIS":"6917.878","LAUNCH_DATE":"2022-08-19","RA_OF_ASC_NODE":"217.4844","MEAN_ANOMALY":"269.0695","DECAY_DATE":null,"MEAN_ELEMENT_THEORY":"SGP4","EPOCH":"2023-01-05T14:55:03.796608","FILE":"3732963","ARG_OF_PERICENTER":"91.0477","TIME_SYSTEM":"UTC","OBJECT_ID":"2022-101AM","REV_AT_EPOCH":"2212","TLE_LINE2":"2 53562  53.2152 217.4844 0001574  91.0477 269.0695 15.08840876 22127","INCLINATION":"53.2152","GP_ID":"222291706","ELEMENT_SET_NO":"999","BSTAR":"0.00008063400000","REF_FRAME":"TEME","CENTER_NAME":"EARTH","RCS_SIZE":"LARGE","CLASSIFICATION_TYPE":"U","PERIAPSIS":"538.654","PERIOD":"95.437","ECCENTRICITY":"0.00015740","APOAPSIS":"540.832","MEAN_MOTION":"15.08840876","COUNTRY_CODE":"US","EPHEMERIS_TYPE":"0","OBJECT_TYPE":"PAYLOAD"},{"CLASSIFICATION_TYPE":"U","RCS_SIZE":"LARGE","REF_FRAME":"TEME","CENTER_NAME":"EARTH","BSTAR":"-0.00009521500000","ELEMENT_SET_NO":"999","GP_ID":"222291939","EPHEMERIS_TYPE":"0","OBJECT_TYPE":"PAYLOAD","COUNTRY_CODE":"US","APOAPSIS":"540.976","MEAN_MOTION":"15.08819017","ECCENTRICITY":"0.00016860","PERIAPSIS":"538.643","PERIOD":"95.439","DECAY_DATE":null,"MEAN_ELEMENT_THEORY":"SGP4","EPOCH":"2023-01-05T18:20:24.410688","MEAN_ANOMALY":"296.9694","OBJECT_NAME":"STARLINK-4561","RA_OF_ASC_NODE":"216.9502","LAUNCH_DATE":"2022-08-19","SEMIMAJOR_AXIS":"6917.945","MEAN_MOTION_DOT":"-0.00001802","NORAD_CAT_ID":"53563","MEAN_MOTION_DDOT":"0.0000000000000","TLE_LINE1":"1 53563U 22101AN  23005.76417142 -.00001802  00000-0 -95215-4 0  9999","SITE":"AFETR","TLE_LINE2":"2 53563  53.2174 216.9502 0001686  63.1471 296.9694 15.08819017 21484","INCLINATION":"53.2174","OBJECT_ID":"2022-101AN","REV_AT_EPOCH":"2148","FILE":"3732963","ARG_OF_PERICENTER":"63.1471","TIME_SYSTEM":"UTC"},{"NORAD_CAT_ID":"53564","MEAN_MOTION_DOT":"0.00000210","SITE":"AFETR","TLE_LINE1":"1 53564U 22101AP  23005.61692792  .00000210  00000-0  31276-4 0  9997","MEAN_MOTION_DDOT":"0.0000000000000","EPOCH":"2023-01-05T14:48:22.572288","MEAN_ELEMENT_THEORY":"SGP4","DECAY_DATE":null,"SEMIMAJOR_AXIS":"6917.877","LAUNCH_DATE":"2022-08-19","RA_OF_ASC_NODE":"217.4538","OBJECT_NAME":"STARLINK-4577","MEAN_ANOMALY":"313.2075","TIME_SYSTEM":"UTC","FILE":"3732963","ARG_OF_PERICENTER":"46.9067","REV_AT_EPOCH":"2146","OBJECT_ID":"2022-101AP","INCLINATION":"53.2170","TLE_LINE2":"2 53564  53.2170 217.4538 0001791  46.9067 313.2075 15.08841211 21468","ELEMENT_SET_NO":"999","BSTAR":"0.00003127600000","CENTER_NAME":"EARTH","REF_FRAME":"TEME","GP_ID":"222292632","RCS_SIZE":"LARGE","CLASSIFICATION_TYPE":"U","ECCENTRICITY":"0.00017910","PERIOD":"95.437","PERIAPSIS":"538.503","EPHEMERIS_TYPE":"0","OBJECT_TYPE":"PAYLOAD","MEAN_MOTION":"15.08841211","APOAPSIS":"540.981","COUNTRY_CODE":"US"},{"DECAY_DATE":null,"MEAN_ELEMENT_THEORY":"SGP4","EPOCH":"2023-01-05T16:34:23.712672","OBJECT_NAME":"STARLINK-4575","RA_OF_ASC_NODE":"217.2032","LAUNCH_DATE":"2022-08-19","SEMIMAJOR_AXIS":"6917.934","MEAN_ANOMALY":"271.5102","NORAD_CAT_ID":"53565","MEAN_MOTION_DOT":"-0.00005733","SITE":"AFETR","MEAN_MOTION_DDOT":"0.0000000000000","TLE_LINE1":"1 53565U 22101AQ  23005.69055223 -.00005733  00000-0 -34257-3 0  9996","TLE_LINE2":"2 53565  53.2152 217.2032 0001333  88.6043 271.5102 15.08822547 22138","INCLINATION":"53.2152","ARG_OF_PERICENTER":"88.6043","FILE":"3732963","TIME_SYSTEM":"UTC","OBJECT_ID":"2022-101AQ","REV_AT_EPOCH":"2213","RCS_SIZE":"LARGE","CLASSIFICATION_TYPE":"U","BSTAR":"-0.00034257000000","ELEMENT_SET_NO":"999","REF_FRAME":"TEME","CENTER_NAME":"EARTH","GP_ID":"222292860","OBJECT_TYPE":"PAYLOAD","EPHEMERIS_TYPE":"0","APOAPSIS":"540.721","MEAN_MOTION":"15.08822547","COUNTRY_CODE":"US","ECCENTRICITY":"0.00013330","PERIAPSIS":"538.877","PERIOD":"95.439"},{"TLE_LINE2":"2 53566  53.2170 217.4102 0000959  90.0469 270.0633 15.08846543 22158","INCLINATION":"53.2170","OBJECT_ID":"2022-101AR","REV_AT_EPOCH":"2215","ARG_OF_PERICENTER":"90.0469","FILE":"3732939","TIME_SYSTEM":"UTC","DECAY_DATE":null,"MEAN_ELEMENT_THEORY":"SGP4","EPOCH":"2023-01-05T14:37:45.634944","MEAN_ANOMALY":"270.0633","OBJECT_NAME":"STARLINK-4576","LAUNCH_DATE":"2022-08-19","SEMIMAJOR_AXIS":"6917.860","RA_OF_ASC_NODE":"217.4102","MEAN_MOTION_DOT":"0.00000092","NORAD_CAT_ID":"53566","MEAN_MOTION_DDOT":"0.0000000000000","TLE_LINE1":"1 53566U 22101AR  23005.60955596  .00000092  00000-0  23846-4 0  9994","SITE":"AFETR","EPHEMERIS_TYPE":"0","OBJECT_TYPE":"PAYLOAD","COUNTRY_CODE":"US","APOAPSIS":"540.389","MEAN_MOTION":"15.08846543","ECCENTRICITY":"0.00009590","PERIAPSIS":"539.062","PERIOD":"95.437","CLASSIFICATION_TYPE":"U","RCS_SIZE":"LARGE","REF_FRAME":"TEME","CENTER_NAME":"EARTH","BSTAR":"0.00002384600000","ELEMENT_SET_NO":"999","GP_ID":"222266181"},{"RCS_SIZE":"LARGE","CLASSIFICATION_TYPE":"U","BSTAR":"-0.00008605100000","ELEMENT_SET_NO":"999","REF_FRAME":"TEME","CENTER_NAME":"EARTH","GP_ID":"222291468","OBJECT_TYPE":"PAYLOAD","EPHEMERIS_TYPE":"0","APOAPSIS":"541.124","MEAN_MOTION":"15.08826654","COUNTRY_CODE":"US","ECCENTRICITY":"0.00019340","PERIAPSIS":"538.448","PERIOD":"95.438","DECAY_DATE":null,"EPOCH":"2023-01-05T16:29:06.319680","MEAN_ELEMENT_THEORY":"SGP4","OBJECT_NAME":"STARLINK-4585","LAUNCH_DATE":"2022-08-19","RA_OF_ASC_NODE":"217.1775","SEMIMAJOR_AXIS":"6917.921","MEAN_ANOMALY":"291.4312","NORAD_CAT_ID":"53567","MEAN_MOTION_DOT":"-0.00001657","SITE":"AFETR","MEAN_MOTION_DDOT":"0.0000000000000","TLE_LINE1":"1 53567U 22101AS  23005.68687870 -.00001657  00000-0 -86051-4 0  9997","TLE_LINE2":"2 53567  53.2178 217.1775 0001934  68.6887 291.4312 15.08826654 21475","INCLINATION":"53.2178","FILE":"3732963","ARG_OF_PERICENTER":"68.6887","TIME_SYSTEM":"UTC","OBJECT_ID":"2022-101AS","REV_AT_EPOCH":"2147"},{"RCS_SIZE":"LARGE","CLASSIFICATION_TYPE":"U","GP_ID":"222264782","BSTAR":"0.00004989000000","ELEMENT_SET_NO":"999","REF_FRAME":"TEME","CENTER_NAME":"EARTH","APOAPSIS":"540.940","MEAN_MOTION":"15.08851886","COUNTRY_CODE":"US","OBJECT_TYPE":"PAYLOAD","EPHEMERIS_TYPE":"0","PERIAPSIS":"538.478","PERIOD":"95.437","ECCENTRICITY":"0.00017800","OBJECT_NAME":"STARLINK-4583","LAUNCH_DATE":"2022-08-19","RA_OF_ASC_NODE":"217.3396","SEMIMAJOR_AXIS":"6917.844","MEAN_ANOMALY":"306.8908","DECAY_DATE":null,"MEAN_ELEMENT_THEORY":"SGP4","EPOCH":"2023-01-05T14:21:50.164128","SITE":"AFETR","MEAN_MOTION_DDOT":"0.0000000000000","TLE_LINE1":"1 53568U 22101AT  23005.59849727  .00000506  00000-0  49890-4 0  9999","NORAD_CAT_ID":"53568","MEAN_MOTION_DOT":"0.00000506","TLE_LINE2":"2 53568  53.2161 217.3396 0001780  53.2248 306.8908 15.08851886 22152","INCLINATION":"53.2161","FILE":"3732939","ARG_OF_PERICENTER":"53.2248","TIME_SYSTEM":"UTC","OBJECT_ID":"2022-101AT","REV_AT_EPOCH":"2215"},{"ECCENTRICITY":"0.00015740","PERIOD":"95.437","PERIAPSIS":"538.632","OBJECT_TYPE":"PAYLOAD","EPHEMERIS_TYPE":"0","MEAN_MOTION":"15.08847970","APOAPSIS":"540.810","COUNTRY_CODE":"US","ELEMENT_SET_NO":"999","BSTAR":"0.00013095000000","CENTER_NAME":"EARTH","REF_FRAME":"TEME","GP_ID":"222292400","RCS_SIZE":"LARGE","CLASSIFICATION_TYPE":"U","TIME_SYSTEM":"UTC","ARG_OF_PERICENTER":"60.1466","FILE":"3732963","REV_AT_EPOCH":"2214","OBJECT_ID":"2022-101AU","INCLINATION":"53.2144","TLE_LINE2":"2 53569  53.2144 217.1346 0001574  60.1466 299.9682 15.08847970 22146","NORAD_CAT_ID":"53569","MEAN_MOTION_DOT":"0.00001797","SITE":"AFETR","TLE_LINE1":"1 53569U 22101AU  23005.67948754  .00001797  00000-0  13095-3 0  9999","MEAN_MOTION_DDOT":"0.0000000000000","EPOCH":"2023-01-05T16:18:27.723456","MEAN_ELEMENT_THEORY":"SGP4","DECAY_DATE":null,"RA_OF_ASC_NODE":"217.1346","LAUNCH_DATE":"2022-08-19","SEMIMAJOR_AXIS":"6917.856","OBJECT_NAME":"STARLINK-4582","MEAN_ANOMALY":"299.9682"},{"MEAN_ANOMALY":"327.8234","OBJECT_NAME":"STARLINK-4550","RA_OF_ASC_NODE":"217.3640","LAUNCH_DATE":"2022-08-19","SEMIMAJOR_AXIS":"6917.894","DECAY_DATE":null,"EPOCH":"2023-01-05T14:27:09.169344","MEAN_ELEMENT_THEORY":"SGP4","MEAN_MOTION_DDOT":"0.0000000000000","TLE_LINE1":"1 53570U 22101AV  23005.60218946  .00004121  00000-0  27692-3 0  9999","SITE":"AFETR","MEAN_MOTION_DOT":"0.00004121","NORAD_CAT_ID":"53570","TLE_LINE2":"2 53570  53.2158 217.3640 0002659  32.2921 327.8234 15.08835681 22154","INCLINATION":"53.2158","OBJECT_ID":"2022-101AV","REV_AT_EPOCH":"2215","FILE":"3732939","ARG_OF_PERICENTER":"32.2921","TIME_SYSTEM":"UTC","CLASSIFICATION_TYPE":"U","RCS_SIZE":"LARGE","GP_ID":"222265718","REF_FRAME":"TEME","CENTER_NAME":"EARTH","ELEMENT_SET_NO":"999","BSTAR":"0.00027692000000","COUNTRY_CODE":"US","APOAPSIS":"541.598","MEAN_MOTION":"15.08835681","EPHEMERIS_TYPE":"0","OBJECT_TYPE":"PAYLOAD","PERIAPSIS":"537.919","PERIOD":"95.438","ECCENTRICITY":"0.00026590"}];
